code,name,lat,long,tambon,amphoe,province,basin,region,left_bank,right_bank,ground_level,rid_critical_level
NAN006,บางกระทุ่ม,16.58053,100.23859,โคกสลุด,บางกระทุ่ม,พิษณุโลก,แม่น้ำน่าน,ภาคเหนือ,40.044,40.406,30.36,
PIN003,สะพานลานดอกไม้,16.62822,99.43257,ลานดอกไม้,เมืองกำแพงเพชร,กำแพงเพชร,แม่น้ำปิง,ภาคเหนือ,84.613,85.393,80.53,
YOM008,บางระกำ,16.70808,100.17178,บางระกำ,บางระกำ,พิษณุโลก,แม่น้ำยม,ภาคเหนือ,40.437,40.81,29.6,
CHI010,มหาชนะชัย,15.52483,104.24972,ฟ้าหยาด,มหาชนะชัย,ยโสธร,แม่น้ำชี,ภาคตะวันออกเฉียงเหนือ,121.98,121.98,109.665,
YOM001,ปง,19.14830,100.27760,ปง,ปง,พะเยา,แม่น้ำยม,ภาคเหนือ,293.426,293.084,287.24,
WAN003,เถิน,17.75169,99.23061,แม่ถอด,เถิน,ลำปาง,แม่น้ำวัง,ภาคเหนือ,180.119,178.689,171.42,
YOM002,เชียงม่วน,18.94623,100.25925,สระ,เชียงม่วน,พะเยา,แม่น้ำยม,ภาคเหนือ,267.472,267.109,256.76,
PIN001,บ้านตาก,17.04065,99.06620,ตากตก,บ้านตาก,ตาก,แม่น้ำปิง,ภาคเหนือ,121.6,121.6,118.19,
YOM004,เด่นชัย,18.020961267422265,100.0588284834671,เด่นชัย,เด่นชัย,แพร่,แม่น้ำยม,ภาคเหนือ,147.259,147.708,135.95,
TPI003,พุนพิน 3,8.98699,99.21124,ท่าสะท้อน,พุนพิน,สุราษฎร์ธานี,แม่น้ำตาปี,ภาคใต้,2.858,3.174,-3.425,
CHI006,สะพานท่าพระ,16.32589,102.78593,ท่าพระ,เมืองขอนแก่น,ขอนแก่น,แม่น้ำชี,ภาคตะวันออกเฉียงเหนือ,153.212,153.812,143.81,
MDC006,คลองท่าดี,8.39958,99.83317,กำแพงเซา,เมืองนครศรีธรรมราช,นครศรีธรรมราช,ภาคใต้ฝั่งตะวันออก,ภาคใต้,22.18,22.18,18,
NPI002,นบพิตำ,8.72007,99.79544,สระแก้ว,ท่าศาลา,นครศรีธรรมราช,ภาคใต้ฝั่งตะวันออก,ภาคใต้,23.109,24.18,13.448,
YOM006,สวรรคโลก,17.201009586447355,99.86329341335295,ท่าทอง,สวรรคโลก,สุโขทัย,แม่น้ำยม,ภาคเหนือ,57.646,57.924,46.35,
CHI003,เมืองชัยภูมิ,15.68159,102.00953,บ้านค่าย,เมืองชัยภูมิ,ชัยภูมิ,แม่น้ำชี,ภาคตะวันออกเฉียงเหนือ,183.769,184.331,176.74,
WAN001,สามเงา,17.26062,99.07796,วังหมัน,สามเงา,ตาก,แม่น้ำวัง,ภาคเหนือ,142.879,141.858,131.5,
CHI011,เขื่องใน,15.32273,104.54650,เขื่องใน,เขื่องใน,อุบลราชธานี,แม่น้ำชี,ภาคตะวันออกเฉียงเหนือ,116.881,116.339,105.23,
PAT002,เมืองยะลา,6.675272720999049,101.28640936637885,ตาเซะ,เมืองยะลา,ยะลา,แม่น้ำปัตตานี,ภาคใต้,13.85,13.85,1.74,
SVI001,สวี 1,10.231190048332113,99.09837312135698,นาโพธิ์,สวี,ชุมพร,ภาคใต้ฝั่งตะวันออก,ภาคใต้,3.598,2.702,-3.542,
MDC002,เขาสก,8.88086,98.8529,พังกาญจน์,พนม,สุราษฎร์ธานี,ภาคใต้ฝั่งตะวันตก,ภาคใต้,,,,
MUN002,เฉลิมพระเกียรติ,14.96809,102.23791,หนองยาง,เฉลิมพระเกียรติ,นครราชสีมา,แม่น้ำมูล,ภาคตะวันออกเฉียงเหนือ,168.933,168.099,160.66,
PIN002,เมืองตาก,16.78656,99.18398,ประดาง,วังเจ้า,ตาก,แม่น้ำปิง,ภาคเหนือ,101.829,104.266,93.43,
SLA002,คลองหอยโข่ง,6.93138,100.44007,ทุ่งลาน,คลองหอยโข่ง,สงขลา,ทะเลสาบสงขลา,ภาคใต้,8.056,8.599,-1.601,
YOM009,โพธิ์ประทับช้าง,16.31081,100.27177,โพธิ์ประทับช้าง,โพธิ์ประทับช้าง,พิจิตร,แม่น้ำยม,ภาคเหนือ,33.627,32.5,26,33
MUN006,วารินชำราบ,15.20560,104.81390,คำน้ำแซบ,วารินชำราบ,อุบลราชธานี,แม่น้ำมูล,ภาคตะวันออกเฉียงเหนือ,117.35,115.954,102.73,
YOM003,หนองม่วงไข่,18.26593471765355,100.17696691038134,น้ำรัด,หนองม่วงไข่,แพร่,แม่น้ำยม,ภาคเหนือ,158.977,157,151.7,
PIN004,ขาณุวรลักษบุรี,16.06477,99.86028,ป่าพุทรา,ขาณุวรลักษบุรี,กำแพงเพชร,แม่น้ำปิง,ภาคเหนือ,45.331,43.922,38.988,
NYK001,สะพานวังแก่ง,14.364870,101.090275,เขาเพิ่ม,บ้านนา,นครนายก,แม่น้ำบางปะกง,ภาคตะวันออก,,,,
NYK014,สะพานโยธกา,13.97483,101.14321,บางเตย,บ้านสร้าง,ปราจีนบุรี,แม่น้ำบางปะกง,ภาคตะวันออก,,,,
MUN005,ราษีไศล,15.33945,104.15237,เมืองคง,ราษีไศล,ศรีสะเกษ,แม่น้ำมูล,ภาคตะวันออกเฉียงเหนือ,121.302,120.793,109.57,
SVI002,สวี 2,10.20323,99.04354,นาสัก,สวี,ชุมพร,ภาคใต้ฝั่งตะวันออก,ภาคใต้,9.661,9.692,-1.96,
NPI001,ท่าศาลา,8.786807442873367,99.91127049570082,สระแก้ว,ท่าศาลา,นครศรีธรรมราช,ภาคใต้ฝั่งตะวันออก,ภาคใต้,7.492,3.24,-0.928,
TPI001,พุนพิน 1,9.13127,99.25883,ท่าข้าม,พุนพิน,สุราษฎร์ธานี,แม่น้ำตาปี,ภาคใต้,3.828,3.523,-5.122,
YOM007,กงไกรลาศ,16.927467360030814,99.95945860118866,กง,กงไกรลาศ,สุโขทัย,แม่น้ำยม,ภาคเหนือ,45.05,44.966,34.09,
CHI005,ชนบท,16.09691,102.56998,ชนบท,ชนบท,ขอนแก่น,แม่น้ำชี,ภาคตะวันออกเฉียงเหนือ,158.412,158.754,145.05,
CHI009,เสลภูมิ,16.03420,103.90716,ขวัญเมือง,เสลภูมิ,ร้อยเอ็ด,แม่น้ำชี,ภาคตะวันออกเฉียงเหนือ,129.48,129.278,116.83,
MUN004,พิมาย,15.22807,102.48438,ในเมือง,พิมาย,นครราชสีมา,แม่น้ำมูล,ภาคตะวันออกเฉียงเหนือ,155.3,155.7,147.18,155.8
TPI002,พุนพิน 2,9.08679,99.17065,หนองไทร,พุนพิน,สุราษฎร์ธานี,แม่น้ำตาปี,ภาคใต้,4.756,4.335,-5.237,
SKM001,อากาศอำนวย,17.77758,104.01511,โพนงาม,อากาศอำนวย,สกลนคร,แม่น้ำโขง,ภาคตะวันออกเฉียงเหนือ,136.285,136.935,124.75,
CHI001,บ้านเขว้า,15.93310,101.69954,ภูแลนคา,บ้านเขว้า,ชัยภูมิ,แม่น้ำชี,ภาคตะวันออกเฉียงเหนือ,210.024,208.523,199.52,
CHI004,แก้งสนามนาง,15.75297,102.25305,แก้งสนามนาง,แก้งสนามนาง,นครราชสีมา,แม่น้ำชี,ภาคตะวันออกเฉียงเหนือ,175.937,175.683,163.44,
CHI007,โกสุมพิสัย,16.25108,103.07407,หัวขวาง,โกสุมพิสัย,มหาสารคาม,แม่น้ำชี,ภาคตะวันออกเฉียงเหนือ,148.024,149.433,133.64,
NAN003,เมืองน่าน,18.738041121258945,100.75626131282809,ท่าน้าว,ภูเพียง,น่าน,แม่น้ำน่าน,ภาคเหนือ,195.218,198.194,187.61,
MDC001,ตลาดเก่าตะกั่วป่า,8.82935,98.3692,โคกเคียน,ตะกั่วป่า,พังงา,ภาคใต้ฝั่งตะวันตก,ภาคใต้,4.435,3.618,,
SLA001,หาดใหญ่,6.979713636810832,100.4636724773502,คอหงส์,หาดใหญ่,สงขลา,ทะเลสาบสงขลา,ภาคใต้,8.601,9.032,-3.329,
WAN002,แม่พริก,17.44540,99.12909,แม่พริก,แม่พริก,ลำปาง,แม่น้ำวัง,ภาคเหนือ,155.809,155.417,145.55,
MDC003,คลองนางเรียม(ทะเลน้อย),7.78019,100.197,พนางตุง,ควนขนุน,พัทลุง,ทะเลสาบสงขลา,ภาคใต้,,,,
MUN003,ชุมพวง,15.28664,102.68459,ท่าลาด,ชุมพวง,นครราชสีมา,แม่น้ำมูล,ภาคตะวันออกเฉียงเหนือ,146.418,147.081,140.53,
NAN002,ภูเพียง,18.85961281711123,100.81718941600798,เมืองจัง,ภูเพียง,น่าน,แม่น้ำน่าน,ภาคเหนือ,207.863,206.317,196.91,
TPI004,ท่าขนอม,9.029204506980257,98.96962682209016,ท่าขนอน,คีรีรัฐนิคม,สุราษฎร์ธานี,แม่น้ำตาปี,ภาคใต้,11.242,11.969,-0.952,
TPI005,เวียงสระ,8.57094,99.25391,ทุ่งหลวง,เวียงสระ,สุราษฎร์ธานี,แม่น้ำตาปี,ภาคใต้,9.294,11.311,2.943,
PAT001,บันนังสตา,6.262164270909584,101.26823306941992,บันนังสตา,บันนังสตา,ยะลา,แม่น้ำปัตตานี,ภาคใต้,,,,
NAN001,ท่าวังผา,19.096193876427737,100.80259580356596,ท่าวังผา,ท่าวังผา,น่าน,แม่น้ำน่าน,ภาคเหนือ,224.384,226.497,217.08,
NAN007,ตะพานหิน,16.27033,100.41396,งิ้วราย,ตะพานหิน,พิจิตร,แม่น้ำน่าน,ภาคเหนือ,34.343,34.696,22.39,
NAN005,แม่น้ำเข็ก (ว้งทอง),16.85493,100.66673,วังนกแอ่น,วังทอง,พิษณุโลก,แม่น้ำน่าน,ภาคเหนือ,136.628,136.624,134.96,
SKM003,บ้านม่วง,17.82158,103.38708,ห้วยหลัว,บ้านม่วง,สกลนคร,แม่น้ำโขง,ภาคตะวันออกเฉียงเหนือ,151.4,151.4,145.86,154.5
WAN004,เกาะคา,18.159187,99.384202,วังพร้าว,เกาะคา,ลำปาง,แม่น้ำวัง,ภาคเหนือ,214.888,217.723,207.37,
PIN005,เก้าเลี้ยว,15.85066,100.05231,หัวดง,เก้าเลี้ยว,นครสวรรค์,แม่น้ำปิง,ภาคเหนือ,31.197,32.915,25.85,
NAN004,พิชัย,17.29440,100.08308,ในเมือง,พิชัย,อุตรดิตถ์,แม่น้ำน่าน,ภาคเหนือ,51.196,54.876,42.85,
SLA003,สะเดา,6.796643366404357,100.44202877603993,ท่าโพธิ์,สะเดา,สงขลา,ทะเลสาบสงขลา,ภาคใต้,17.298,17.32,8.393,
YOM005,ศรีสัชนาลัย,17.51729606800995,99.7586315448093,หาดเสี้ยว,ศรีสัชนาลัย,สุโขทัย,แม่น้ำยม,ภาคเหนือ,72.281,72.496,57,
NAN008,ชุมแสง,15.86919,100.26479,เกยไชย,ชุมแสง,นครสวรรค์,แม่น้ำน่าน,ภาคเหนือ,28.3,23.3,16.208,28.3
NYK008,สะพานเขานางบวช,14.24578,101.27438,ศรีนาวา,เมืองนครนายก,นครนายก,แม่น้ำบางปะกง,ภาคตะวันออก,,,,
CHI008,จังหาร,16.21783,103.61631,แสนชาติ,จังหาร,ร้อยเอ็ด,แม่น้ำชี,ภาคตะวันออกเฉียงเหนือ,135.789,136.341,123.28,
CHI002,หนองบัวระเหว,15.77047,101.81252,หนองบัวระเหว,หนองบัวระเหว,ชัยภูมิ,แม่น้ำชี,ภาคตะวันออกเฉียงเหนือ,194.221,193.789,185.68,198
MUN011,พิบูลมังสาหาร,15.24965,105.23927,โพธิ์ศรี,พิบูลมังสาหาร,อุบลราชธานี,แม่น้ำมูล,ภาคตะวันออกเฉียงเหนือ,114.234,115.535,106.296,
WAN006,วัง6(W1C),18.299717,99.511231,เวียงเหนือ,เมืองลำปาง,ลำปาง,แม่น้ำวัง,ภาคเหนือ,,,,
MUN014,สตึก,15.29988,103.29216,นิคม,สตึก,บุรีรัมย์,แม่น้ำมูล,ภาคตะวันออกเฉียงเหนือ,110.76,111.114,101.846,
PAS006,วังม่วง,14.740930,101.059720,แสลงพัน,วังม่วง,สระบุรี,แม่น้ำป่าสัก,ภาคกลาง,24.838,21.173,9.56,
CHM006,จอมทอง,18.42321,98.69834,ข่วงเปา,จอมทอง,เชียงใหม่,แม่น้ำปิง,ภาคเหนือ,277.206,277.253,267.778,
GLF001,ป้อมพระจุลจอมเกล้า,13.573825,100.57397,แหลมฟ้าผ่า,พระสมุทรเจดีย์,สมุทรปราการ,แม่น้ำเจ้าพระยา,กรุงเทพและปริมณฑล,2.849,2.724,,
LBI002,เมืองลพบุรี,14.760510,100.59966,โพธิ์เก้าต้น,เมืองลพบุรี,ลพบุรี,แม่น้ำป่าสัก,ภาคกลาง,6.849,6.45,0.129,
NAN014,ตรอน,17.418305,100.13089,หาดสองแคว,ตรอน,อุตรดิตถ์,แม่น้ำน่าน,ภาคเหนือ,53.976,52.156,44.976,
PRC002,เมืองปราจีนบุรี,14.0525,101.373,หน้าเมือง,เมืองปราจีนบุรี,ปราจีนบุรี,แม่น้ำปราจีนบุรี,ภาคตะวันออก,5.44,6.42,-4.27,
SKM005,สว่างแดนดิน,17.59462,103.38453,โพนสูง,สว่างแดนดิน,สกลนคร,แม่น้ำโขง,ภาคตะวันออกเฉียงเหนือ,157.209,156.592,150.1,
CHI015,เมืองขอนแก่น,16.52890,102.90582,หนองตูม,เมืองขอนแก่น,ขอนแก่น,แม่น้ำชี,ภาคตะวันออกเฉียงเหนือ,132.475,133.253,121.85,
CHM004,เชียงดาว,19.36731,98.96883,เชียงดาว,เชียงดาว,เชียงใหม่,แม่น้ำปิง,ภาคเหนือ,381.849,382.589,378.799,
CPY014,สะพานนวลฉวี,13.915725,100.494031,บ้านใหม่,ปากเกร็ด,นนทบุรี,แม่น้ำเจ้าพระยา,กรุงเทพและปริมณฑล,3.03,2.27,-13.373,
DIV003,คลองผันน้ำยม-น่าน3,17.292606,100.077617,คอรุม,พิชัย,อุตรดิตถ์,แม่น้ำน่าน,ภาคเหนือ,53.36,52.76,43.78,
DIV006,ท่อทองแดง2,16.825629,99.812738,หนองกระดิ่ง,คีรีมาศ,สุโขทัย,แม่น้ำยม,ภาคเหนือ,47.09,47.04,43.15,
BKK021,คลองลาดพร้าว วัดบางบัว,13.85411,100.58750,อนุสาวรีย์,บางเขน,กรุงเทพมหานคร,แม่น้ำในกรุงเทพและปริมณฑล,กรุงเทพและปริมณฑล,,,-0.33,
NYK000,องครักษ์,14.11363,101.01955,องครักษ์,องครักษ์,นครนายก,แม่น้ำบางปะกง,ภาคตะวันออก,4.797,2.512,-3.96,
PAS004,วิเชียรบุรี,15.655744,101.101032,ท่าโรง,วิเชียรบุรี,เพชรบูรณ์,แม่น้ำป่าสัก,ภาคเหนือ,67.77,67.378,56.941,
STU001,เมืองสตูล,6.726689,100.062612,ฉลุง,เมืองสตูล,สตูล,ภาคใต้ฝั่งตะวันตก,ภาคใต้,15.148,15.139,12.922,
BKK015,คลองหกวา ลำลูกกา คลอง8,13.94155,100.77493,ลำลูกกา,ลำลูกกา,ปทุมธานี,แม่น้ำในกรุงเทพและปริมณฑล,กรุงเทพและปริมณฑล,2.706,2.789,-2.48,
CPY009,คลองโผงเผง,14.415810,100.440730,บางหลวงโดด,บางบาล,พระนครศรีอยุธยา,แม่น้ำเจ้าพระยา,กรุงเทพและปริมณฑล,4.316,4.536,-5.407,4.6
KON005,บ้านดุง,17.639790,103.098958,นาคำ,บ้านดุง,อุดรธานี,แม่น้ำโขง,ภาคตะวันออกเฉียงเหนือ,162.162,161.306,151.111,
CPY011,พระนครศรีอยุธยา,14.369151,100.528514,ภูเขาทอง,พระนครศรีอยุธยา,พระนครศรีอยุธยา,แม่น้ำเจ้าพระยา,กรุงเทพและปริมณฑล,3.87,3.42,-3.929,4.58
CPY013,บางไทร,14.1187,100.535426,โพแตง,บางไทร,พระนครศรีอยุธยา,แม่น้ำเจ้าพระยา,กรุงเทพและปริมณฑล,2.49,2.31,-10.18,2.49
KON002,เมืองเลย,17.509290,101.736390,ชัยพฤกษ์,เมืองเลย,เลย,แม่น้ำโขง,ภาคตะวันออกเฉียงเหนือ,236.879,238.082,229.13,
BKK008,คลองแสนแสบ บางกะปิ,13.761400,100.616060,หัวหมาก,บางกะปิ,กรุงเทพมหานคร,แม่น้ำในกรุงเทพและปริมณฑล,กรุงเทพและปริมณฑล,0.922,0.881,-5.368,
KRN002,ไทรโยค,14.11254,99.14620,ลุ่มสุ่ม,ไทรโยค,กาญจนบุรี,แม่น้ำแม่กลอง,ภาคกลาง,48.338,48.704,30.844,
BKK013,คลองระพีพัฒน์แยกใต้ หนองเสือ,14.22066,100.89169,นพรัตน์,หนองเสือ,ปทุมธานี,แม่น้ำในกรุงเทพและปริมณฑล,กรุงเทพและปริมณฑล,3.96,5.025,-0.58,
BKK019,คลองนราภิรมย์ (บางเลน),13.88213,100.29083,นราภิรมย์,บางเลน,นครปฐม,แม่น้ำในกรุงเทพและปริมณฑล,ภาคกลาง,4.337,3.96,-1.59,
CHR001,เมืองเชียงราย,19.826335,99.778917,ป่าอ้อดอนชัย,เมืองเชียงราย,เชียงราย,แม่น้ำโขง,ภาคเหนือ,404.204,404.562,399.85,
KRN001,เมืองกาญจนบุรี,14.0606,99.4832,แก่งเสี้ยน,เมืองกาญจนบุรี,กาญจนบุรี,แม่น้ำแม่กลอง,ภาคกลาง,28.893,25.593,20.106,
NAN012,เมืองพิษณุโลก,16.86488,100.24485,ปากโทก,เมืองพิษณุโลก,พิษณุโลก,แม่น้ำน่าน,ภาคเหนือ,45.044,45.36,33.617,
TPI007,วิภาวดี,9.20622,98.95229,ตะกุกเหนือ,วิภาวดี,สุราษฎร์ธานี,แม่น้ำตาปี,ภาคใต้,34.73,33.46,20.858,
TKP002,เมืองพังงา,8.47702,98.52825,ถ้ำน้ำผุด,เมืองพังงา,พังงา,ภาคใต้ฝั่งตะวันตก,ภาคใต้,12.778,11.723,2.01,
CHI014,เมืองยโสธร,15.96448,104.01530,เดิด,เมืองยโสธร,ยโสธร,แม่น้ำชี,ภาคตะวันออกเฉียงเหนือ,128,128,120,
CHR005,เชียงแสน,20.22761,100.12858,เวียง,เชียงแสน,เชียงราย,แม่น้ำโขง,ภาคเหนือ,362.887,362.962,352.287,
PAI002,ปาย,19.37391,98.43965,เวียงเหนือ,ปาย,แม่ฮ่องสอน,แม่น้ำสาละวิน,ภาคเหนือ,506.531,506.657,499.607,
PYO001,ท้ายกว๊านพะเยา,19.15981,99.91450,เวียง,เมืองพะเยา,พะเยา,แม่น้ำยม,ภาคเหนือ,393.24,392.53,387.24,
YOM011,งาว,18.76083,99.97244,หลวงใต้,งาว,ลำปาง,แม่น้ำยม,ภาคเหนือ,270.07,270.61,268.19,
RAY001,เมืองแกลง,12.80299,101.65021,บ้านนา,แกลง,ระยอง,ชายฝั่งทะเลตะวันออก,ภาคตะวันออก,3.899,4.204,-0.158,
SKE001,คลองพระปรง,13.93735,101.92236,ศาลาลำดวน,เมืองสระแก้ว,สระแก้ว,แม่น้ำปราจีนบุรี,ภาคตะวันออก,16.171,16.053,9.04,
JNA001,จะนะ,6.917060,100.729920,บ้านนา,จะนะ,สงขลา,ภาคใต้ฝั่งตะวันออก,ภาคใต้,4.334,4.774,0.514,
PCH001,เมืองเพชรบุรี,13.085558,99.943699,ต้นมะม่วง,เมืองเพชรบุรี,เพชรบุรี,แม่น้ำเพชรบุรี,ภาคกลาง,6.096,7.391,-0.353,
PCH002,แก่งกระจาน,12.9347,99.7805,วังจันทร์,แก่งกระจาน,เพชรบุรี,แม่น้ำเพชรบุรี,ภาคกลาง,24.105,23.312,17.144,
PRC001,กบินทร์บุรี,13.9866,101.705,กบินทร์,กบินทร์บุรี,ปราจีนบุรี,แม่น้ำปราจีนบุรี,ภาคตะวันออก,11.75,11.62,0.44,
MUN016,ป่าติ้ว,15.83999,104.45570,เชียงเพ็ง,ป่าติ้ว,ยโสธร,แม่น้ำมูล,ภาคตะวันออกเฉียงเหนือ,102.733,102.973,96.203,
NAN009,เวียงสา,18.55018,100.76156,ส้าน,เวียงสา,น่าน,แม่น้ำน่าน,ภาคเหนือ,183.73,185.07,178.25,
CMP002,หลังสวน,9.95334,99.06411,ขันเงิน,หลังสวน,ชุมพร,ภาคใต้ฝั่งตะวันออก,ภาคใต้,4.761,4.148,-3.609,
THA011,บางปลา,13.97050,100.15800,บางปลา,บางเลน,นครปฐม,แม่น้ำท่าจีน,ภาคกลาง,3.701,4.135,-2.028,
CPY015,สะพานกรุงเทพ,13.700918,100.492040,ดาวคะนอง,ธนบุรี,กรุงเทพมหานคร,แม่น้ำเจ้าพระยา,กรุงเทพและปริมณฑล,2.58,2.78,-7.94,
CPY003,ปตร.มโนรมย์,15.327670,100.109090,วัดโคก,มโนรมย์,ชัยนาท,แม่น้ำเจ้าพระยา,ภาคกลาง,18.214,18.648,12.193,
PAI001,เมืองแม่ฮ่องสอน,19.36708,97.96655,ปางหมู,เมืองแม่ฮ่องสอน,แม่ฮ่องสอน,แม่น้ำสาละวิน,ภาคเหนือ,208.492,208.882,200.26,
CHM002,ฮอด,18.1785,98.6303,หางดง,ฮอด,เชียงใหม่,แม่น้ำปิง,ภาคเหนือ,297.439,298.077,290.7,
CPY001,สะพานเดชาติวงศ์,15.6886,100.12400,ปากน้ำโพ,เมืองนครสวรรค์,นครสวรรค์,แม่น้ำเจ้าพระยา,ภาคเหนือ,26.45,25.72,16.14,
KON003,สุวรรณคูหา,17.575794,102.273167,นาสี,สุวรรณคูหา,หนองบัวลำภู,แม่น้ำโขง,ภาคตะวันออกเฉียงเหนือ,199.928,198.245,195.68,
KON004,เมืองอุดรธานี,17.482060,102.796743,หมูม่น,เมืองอุดรธานี,อุดรธานี,แม่น้ำโขง,ภาคตะวันออกเฉียงเหนือ,171.542,171.037,165.873,
MKG006,พระรามสอง,13.46118,99.94358,แม่กลอง,เมืองสมุทรสงคราม,สมุทรสงคราม,แม่น้ำแม่กลอง,ภาคกลาง,4.4906,3.158,-13.512,
CPY002,พยุหะคีรี,15.426750,100.134730,ท่าน้ำอ้อย,พยุหะคีรี,นครสวรรค์,แม่น้ำเจ้าพระยา,ภาคเหนือ,21.44,21.39,9.093,
CPY005,สรรพยา,15.109499,100.268555,โพนางดำออก,สรรพยา,ชัยนาท,แม่น้ำเจ้าพระยา,ภาคกลาง,15.14,15.24,3.411,
CPY006,อินทร์บุรี,15.00595,100.3309,อินทร์บุรี,อินทร์บุรี,สิงห์บุรี,แม่น้ำเจ้าพระยา,ภาคกลาง,13.19,12.56,2.438,
MUN009,เมืองสุรินทร์,14.87526,103.37908,ตระแสง,เมืองสุรินทร์,สุรินทร์,แม่น้ำมูล,ภาคตะวันออกเฉียงเหนือ,136.703,135.283,128.037,
MUN013,ห้วยทับทัน,15.04834,104.02157,ห้วยทับทัน,ห้วยทับทัน,ศรีสะเกษ,แม่น้ำมูล,ภาคตะวันออกเฉียงเหนือ,128.446,129.574,118.659,
BPK002,เมืองฉะเชิงเทรา,13.659140,101.063390,บางพระ,เมืองฉะเชิงเทรา,ฉะเชิงเทรา,แม่น้ำบางปะกง,ภาคตะวันออก,1.893,2.089,-11.808,
RAJ002,บ้านโป่ง,13.81871,99.86498,เบิกไพร,บ้านโป่ง,ราชบุรี,แม่น้ำแม่กลอง,ภาคกลาง,11.599,11.54,0.237,
THA005,เมืองสุพรรณบุรี,14.470490,100.114750,ท่าพี่เลี้ยง,เมืองสุพรรณบุรี,สุพรรณบุรี,แม่น้ำท่าจีน,ภาคกลาง,4.509,5.02,-1.395,
PAS003,หนองไผ่,16.115070,101.097050,นาเฉลียง,หนองไผ่,เพชรบูรณ์,แม่น้ำป่าสัก,ภาคเหนือ,93.567,94.169,87.62,
PAS007,เมืองสระบุรี,14.557736,100.923809,ปากเพรียว,เมืองสระบุรี,สระบุรี,แม่น้ำป่าสัก,ภาคกลาง,11.224,14.417,-0.25,
THA006,บางตาเถร,14.157492,100.127761,บางตาเถร,สองพี่น้อง,สุพรรณบุรี,แม่น้ำท่าจีน,ภาคกลาง,2.3,2.3,-2.948,3
THA007,บางเลน,14.016356,100.179869,บางเลน,บางเลน,นครปฐม,แม่น้ำท่าจีน,ภาคกลาง,2.4,2.4,-2.016,
TKP001,ตะกั่วป่า,8.776257,98.390052,ตำตัว,ตะกั่วป่า,พังงา,ภาคใต้ฝั่งตะวันตก,ภาคใต้,8.778,7.783,5.52,
TNG002,เมืองตรัง,7.555730,99.578451,บางรัก,เมืองตรัง,ตรัง,ภาคใต้ฝั่งตะวันตก,ภาคใต้,4.054,4.054,-3.014,
SAY001,สุคิริน,5.944090,101.771046,สุคิริน,สุคิริน,นราธิวาส,ภาคใต้ฝั่งตะวันออก,ภาคใต้,,,,
THA003,ด่านช้าง,14.835030,99.665380,ด่านช้าง,ด่านช้าง,สุพรรณบุรี,แม่น้ำท่าจีน,ภาคกลาง,65.386,65.306,61.461,
THA002,สรรคบุรี (แม่น้ำน้อย),15.064070,100.162920,เที่ยงแท้,สรรคบุรี,ชัยนาท,แม่น้ำท่าจีน,ภาคกลาง,15.412,14.828,7.228,
MUN015,ท่าตูม,15.32965,103.68252,ทุ่งกุลา,ท่าตูม,สุรินทร์,แม่น้ำมูล,ภาคตะวันออกเฉียงเหนือ,126.055,126.089,115.63,
CHI013,ยางตลาด,16.41118,103.46714,ดอนสมบูรณ์,ยางตลาด,กาฬสินธุ์,แม่น้ำชี,ภาคตะวันออกเฉียงเหนือ,123.99,125.17,115.6,
CHR004,แม่สรวย,19.65240,99.53796,แม่สรวย,แม่สรวย,เชียงราย,แม่น้ำโขง,ภาคเหนือ,455.329,455.916,450.183,
CMP001,เมืองชุมพร,10.574560,99.145670,หาดพันไกร,เมืองชุมพร,ชุมพร,ภาคใต้ฝั่งตะวันออก,ภาคใต้,8.133,8.787,-0.749,
JNA002,นาทวี,6.737930,100.693260,นาทวี,นาทวี,สงขลา,ภาคใต้ฝั่งตะวันออก,ภาคใต้,,,,
PAS008,ท่าเรือ,14.560138,100.719998,ท่าเรือ,ท่าเรือ,พระนครศรีอยุธยา,แม่น้ำป่าสัก,กรุงเทพและปริมณฑล,8.789,6.72,-4.17,
SKE003,คลองพรหมโหด,13.70584,102.48166,บ้านใหม่หนองไทร,อรัญประเทศ,สระแก้ว,แม่น้ำปราจีนบุรี,ภาคตะวันออก,44.389,45.109,38.743,
YOM010,เมืองแพร่,18.13395,100.12508,ป่าแมต,เมืองแพร่,แพร่,แม่น้ำยม,ภาคเหนือ,149.518,151.215,143.435,
SKG002,เมืองอุทัยธานี,15.370840,100.044200,อุทัยใหม่,เมืองอุทัยธานี,อุทัยธานี,แม่น้ำสะแกกรัง,ภาคเหนือ,17.797,17.842,10.97,
CPY008,เมืองอ่างทอง,14.576190,100.448690,บางแก้ว,เมืองอ่างทอง,อ่างทอง,แม่น้ำเจ้าพระยา,ภาคกลาง,9.05,9.41,-1.365,
CPY017,เสนา,14.31976,100.37952,เจ้าเสด็จ,เสนา,พระนครศรีอยุธยา,แม่น้ำเจ้าพระยา,กรุงเทพและปริมณฑล,3.831,3.802,-3.016,
KWN002,วัดโบสถ์,16.99876,100.32665,วัดโบสถ์,วัดโบสถ์,พิษณุโลก,แม่น้ำน่าน,ภาคเหนือ,49.229,49.435,39.581,
MUN010,เมืองศรีสะเกษ,15.11806,104.31895,เมืองเหนือ,เมืองศรีสะเกษ,ศรีสะเกษ,แม่น้ำมูล,ภาคตะวันออกเฉียงเหนือ,118,122.094,109.11,
NAN010,น้ำปาด,17.79081,100.74912,บ้านฝาย,น้ำปาด,อุตรดิตถ์,แม่น้ำน่าน,ภาคเหนือ,162.292,158.351,152.744,
NAN011,เมืองอุตรดิตถ์,17.61027,100.09961,ป่าเซ่า,เมืองอุตรดิตถ์,อุตรดิตถ์,แม่น้ำน่าน,ภาคเหนือ,57.462,60.592,49.28,
CHM005,แม่แตง,19.12229,98.94451,สันมหาพน,แม่แตง,เชียงใหม่,แม่น้ำปิง,ภาคเหนือ,336.264,336.284,329,
CHM001,สันทราย,19.009860,98.959760,แม่แฝก,สันทราย,เชียงใหม่,แม่น้ำปิง,ภาคเหนือ,323.263,322.99,312.303,
CPY010,คลองบางบาล,14.423129,100.481881,ไทรน้อย,บางบาล,พระนครศรีอยุธยา,แม่น้ำเจ้าพระยา,กรุงเทพและปริมณฑล,4.92,4.85,-2.002,
DIV001,คลองผันน้ำยม-น่าน1,17.366183,99.84370,ในเมือง,สวรรคโลก,สุโขทัย,แม่น้ำยม,ภาคเหนือ,61.504,62.326,53.43,
DIV004,คลองผันน้ำยม-น่าน4,16.67178,100.24578,งิ้วงาม,เมืองพิษณุโลก,พิษณุโลก,แม่น้ำน่าน,ภาคเหนือ,43.42,43.5,34.87,
RAJ001,โพธาราม,13.6331,99.8165,เจ็ดเสมียน,โพธาราม,ราชบุรี,แม่น้ำแม่กลอง,ภาคกลาง,7.845,9.028,-2.399,
BPK003,บางน้ำเปรี้ยว,13.87032,101.14574,บางขนาก,บางน้ำเปรี้ยว,ฉะเชิงเทรา,แม่น้ำบางปะกง,ภาคตะวันออก,2.077,3.562,-9.515,
SAY002,ศรีสาคร,6.227405,101.497046,ศรีสาคร,ศรีสาคร,นราธิวาส,ภาคใต้ฝั่งตะวันออก,ภาคใต้,35.04,35.03,22.49,
BPK001,บางปะกง,13.548725,101.001545,ท่าสะอ้าน,บางปะกง,ฉะเชิงเทรา,แม่น้ำบางปะกง,ภาคตะวันออก,1.65,1.65,-12.774,
CPY007,พรหมบุรี,14.790902,100.452075,พรหมบุรี,พรหมบุรี,สิงห์บุรี,แม่น้ำเจ้าพระยา,ภาคกลาง,10.2,11.3,-1.85,
MUN008,คูเมือง,15.43523,103.01248,ปะเคียบ,คูเมือง,บุรีรัมย์,แม่น้ำมูล,ภาคตะวันออกเฉียงเหนือ,108.124,110.812,102.348,
THA009,เมืองสมุทรสาคร,13.585950,100.230540,ท่าจีน,เมืองสมุทรสาคร,สมุทรสาคร,แม่น้ำท่าจีน,ภาคกลาง,1.894,1.8,-7.901,
BKK018,คลองพระพิมล (ไทรน้อย),13.97395,100.31896,ไทรน้อย,ไทรน้อย,นนทบุรี,แม่น้ำในกรุงเทพและปริมณฑล,กรุงเทพและปริมณฑล,4.05,4.36,-2.04,
THA004,สามชุก,14.751473,100.095834,สามชุก,สามชุก,สุพรรณบุรี,แม่น้ำท่าจีน,ภาคกลาง,9.602,7.184,1.947,
THA008,สามพราน,13.792160,100.197960,หอมเกร็ด,สามพราน,นครปฐม,แม่น้ำท่าจีน,ภาคกลาง,2.968,1.951,-7.672,
PAS009,นครหลวง,14.403124,100.586504,บ่อโพง,นครหลวง,พระนครศรีอยุธยา,แม่น้ำป่าสัก,กรุงเทพและปริมณฑล,4.405,3.877,-6.03,
PAS001,หล่มสัก,16.781580,101.246569,หล่มสัก,หล่มสัก,เพชรบูรณ์,แม่น้ำป่าสัก,ภาคเหนือ,143.642,143.672,138.46,
PAS005,ชัยบาดาล,15.263862,101.192375,นิคมลำนารายณ์,ชัยบาดาล,ลพบุรี,แม่น้ำป่าสัก,ภาคกลาง,46.973,43.256,34.02,
MKG005,บ้านแพ้ว,13.57559,100.07886,หนองบัว,บ้านแพ้ว,สมุทรสาคร,แม่น้ำแม่กลอง,ภาคกลาง,0.912,1.309,-2.03,
PRN001,ปราณบุรี,12.39006,99.91111,วังก์พง,ปราณบุรี,ประจวบคีรีขันธ์,ชายฝั่งทะเลประจวบคีรีขันธ์,ภาคกลาง,6.627,8.263,-0.593,
CHN001,เมืองจันทบุรี,12.613600,102.114000,จันทนิมิต,เมืองจันทบุรี,จันทบุรี,ชายฝั่งทะเลตะวันออก,ภาคตะวันออก,3.4119,3.3409,-2.062,
DIV005,ท่อทองแดง1,16.497095,99.519492,หนองปลิง,เมืองกำแพงเพชร,กำแพงเพชร,แม่น้ำปิง,ภาคเหนือ,77.64,77.94,73.42,
KWN001,นครไทย,17.10704,100.84586,นครไทย,นครไทย,พิษณุโลก,แม่น้ำน่าน,ภาคเหนือ,202.138,201.597,196.54,
SLA005,ปากรอ,7.26143,100.42433,ปากรอ,สิงหนคร,สงขลา,ทะเลสาบสงขลา,ภาคใต้,0.97,1.62,-6.36,
NAN013,วังทอง,16.82247,100.43184,วังทอง,วังทอง,พิษณุโลก,แม่น้ำน่าน,ภาคเหนือ,49.923,49.272,39.952,
THA010,สองพี่น้อง,14.21593,100.05016,สองพี่น้อง,สองพี่น้อง,สุพรรณบุรี,แม่น้ำท่าจีน,ภาคกลาง,2.637,2.514,-1.51,
GLF002,ปากแม่น้ำท่าจีน,13.51778,100.27497,บางหญ้าแพรก,เมืองสมุทรสาคร,สมุทรสาคร,แม่น้ำท่าจีน,ภาคกลาง,,,,
NKO002,เชียรใหญ่,8.08925,100.12788,การะเกด,เชียรใหญ่,นครศรีธรรมราช,ภาคใต้ฝั่งตะวันตก,ภาคใต้,3.564,3.515,-11.456,
WAN005,เมืองลำปาง,18.34291,99.53710,ต้นธงชัย,เมืองลำปาง,ลำปาง,แม่น้ำวัง,ภาคเหนือ,235.75,238.342,230.77,
SKE002,เมืองสระแก้ว,13.80965,102.05432,สระขวัญ,เมืองสระแก้ว,สระแก้ว,แม่น้ำปราจีนบุรี,ภาคตะวันออก,35.905,34.909,24.321,
CHR002,เทิง,19.68827,100.18742,เวียง,เทิง,เชียงราย,แม่น้ำโขง,ภาคเหนือ,366.973,366.012,358.091,
MUN012,ประโคนชัย,14.63322,103.23026,ไพศาล,ประโคนชัย,บุรีรัมย์,แม่น้ำมูล,ภาคตะวันออกเฉียงเหนือ,149.775,150.25,143.25,
GLF003,บางตะบูน,13.265754,99.941627,บางตะบูนออก,บ้านแหลม,เพชรบุรี,แม่น้ำเพชรบุรี,ภาคกลาง,3.614,2.997,-5.77,
SKM004,ศรีสงคราม,17.67479,104.28576,ศรีสงคราม,ศรีสงคราม,นครพนม,แม่น้ำโขง,ภาคตะวันออกเฉียงเหนือ,145.73,146.31,129.587,
YOM012,เมืองสุโขทัย,17.02139,99.81981,ธานี,เมืองสุโขทัย,สุโขทัย,แม่น้ำยม,ภาคเหนือ,51.49,51.49,38.817,
CHM003,แม่อาย,20.06152,99.36226,ท่าตอน,แม่อาย,เชียงใหม่,แม่น้ำปิง,ภาคเหนือ,450.643,449.753,439.91,
MUN017,เมืองอุบลราชธานี,15.32762,104.68186,หัวดอน,เขื่องใน,อุบลราชธานี,แม่น้ำมูล,ภาคตะวันออกเฉียงเหนือ,116.188,115.147,106.45,
TRD001,เมืองตราด,12.32520,102.50049,ห้วยแร้ง,เมืองตราด,ตราด,ชายฝั่งทะเลตะวันออก,ภาคตะวันออก,3.802,3.634,-14.627,
CHI012,เมืองมหาสารคาม,16.23234,103.27104,เกิ้ง,เมืองมหาสารคาม,มหาสารคาม,แม่น้ำชี,ภาคตะวันออกเฉียงเหนือ,124.8,124.57,108.285,
CPY016,คลองพระยาบรรลือ,14.16493,100.30735,สามเมือง,ลาดบัวหลวง,พระนครศรีอยุธยา,แม่น้ำเจ้าพระยา,กรุงเทพและปริมณฑล,4.055,4.055,-1.051,
RNG001,เมืองระนอง,9.96157,98.64472,เขานิเวศน์,เมืองระนอง,ระนอง,ภาคใต้ฝั่งตะวันตก,ภาคใต้,12.112,10.387,7.2,
CHM007,ฝาง,19.85577,99.19542,แม่สูน,ฝาง,เชียงใหม่,แม่น้ำปิง,ภาคเหนือ,474.177,474.495,467.726,
PRC003,นาดี,14.13359,101.72765,สะพานหิน,นาดี,ปราจีนบุรี,แม่น้ำปราจีนบุรี,ภาคตะวันออก,17.336,17.49,6.714,
RAJ003,สวนผึ้ง,13.54368,99.35422,สวนผึ้ง,สวนผึ้ง,ราชบุรี,แม่น้ำแม่กลอง,ภาคกลาง,99.384,100.608,92.935,
KON001,วังสะพุง,17.312850,101.771950,วังสะพุง,วังสะพุง,เลย,แม่น้ำโขง,ภาคตะวันออกเฉียงเหนือ,245.675,244.313,237.19,
BPK004,พนมสารคาม,13.72653,101.35303,เกาะขนุน,พนมสารคาม,ฉะเชิงเทรา,แม่น้ำบางปะกง,ภาคตะวันออก,7.145,6.291,-0.794,
DIV002,คลองผันน้ำยม-น่าน2,16.954011,100.121299,ท่าช้าง,พรหมพิราม,พิษณุโลก,แม่น้ำยม,ภาคเหนือ,44.43,43.45,37.49,
PAS002,เมืองเพชรบูรณ์,16.447980,101.170200,สะเดียง,เมืองเพชรบูรณ์,เพชรบูรณ์,แม่น้ำป่าสัก,ภาคเหนือ,115.896,115.958,109.95,
TNG001,สะพานหนำเหนือ,7.729400,99.551380,ท่าสะบ้า,วังวิเศษ,ตรัง,ภาคใต้ฝั่งตะวันตก,ภาคใต้,11.778,11.633,-3.28,
CPY004,สะพานธรรมจักร(วัดธรรมามูล),15.250484,100.083310,ธรรมามูล,เมืองชัยนาท,ชัยนาท,แม่น้ำเจ้าพระยา,ภาคกลาง,18.98,17.08,-0.827,
THA001,สะพานคง-ศุข ศรีสวัสดิ์,15.225030,100.078260,หาดท่าเสา,เมืองชัยนาท,ชัยนาท,แม่น้ำท่าจีน,ภาคกลาง,19.545,19.808,7.578,
CPY012,บางปะอิน,14.304666,100.566393,ขนอนหลวง,บางปะอิน,พระนครศรีอยุธยา,แม่น้ำเจ้าพระยา,กรุงเทพและปริมณฑล,2.24,3.48,-4.208,2.98
LBI001,บางปะหัน,14.42730,100.55600,โพธิ์สามต้น,บางปะหัน,พระนครศรีอยุธยา,แม่น้ำป่าสัก,กรุงเทพและปริมณฑล,1.743,1.743,-4.405,
BKK001,คลองลาดพร้าว ท้ายปตร.คลอง2,13.922305,100.634267,สายไหม,สายไหม,กรุงเทพมหานคร,แม่น้ำในกรุงเทพและปริมณฑล,กรุงเทพและปริมณฑล,2.563,2.758,-1.9,
BKK003,คลองมหาสวัสดิ บางกรวย-สวนผัก,13.799570,100.438720,ตลิ่งชัน,ตลิ่งชัน,กรุงเทพมหานคร,แม่น้ำในกรุงเทพและปริมณฑล,กรุงเทพและปริมณฑล,2.069,2.152,-3.101,
BKK004,คลองทวีวัฒนา ท้ายปตร.ทวีวัฒนา,13.795660,100.331940,ศาลาธรรมสพน์,ทวีวัฒนา,กรุงเทพมหานคร,แม่น้ำในกรุงเทพและปริมณฑล,กรุงเทพและปริมณฑล,1.422,1.877,-1.835,
BKK005,คลองภาษีเจริญ เพชรเกษม69,13.691615,100.381393,หลักสอง,บางแค,กรุงเทพมหานคร,แม่น้ำในกรุงเทพและปริมณฑล,กรุงเทพและปริมณฑล,1.637,1.415,-1.605,
BKK009,คลองลำปลาทิว ลาดกระบัง,13.740640,100.794770,ลาดกระบัง,ลาดกระบัง,กรุงเทพมหานคร,แม่น้ำในกรุงเทพและปริมณฑล,กรุงเทพและปริมณฑล,0.6228,1.188,-3.171,
BKK012,คลองสำโรง บางเสาธง,13.589267,100.802235,บางเสาธง,บางเสาธง,สมุทรปราการ,แม่น้ำในกรุงเทพและปริมณฑล,กรุงเทพและปริมณฑล,1.782,0.646,-2.678,
BKK016,ปากคลองพระองค์เจ้าฯ (บางน้ำเปรี้ยว),13.83822,100.96671,บางน้ำเปรี้ยว,บางน้ำเปรี้ยว,ฉะเชิงเทรา,แม่น้ำในกรุงเทพและปริมณฑล,ภาคตะวันออก,1.387,1.237,-2.43,
BKK020,คลองลาดพร้าว ปากคลอง2สายใต้,13.93181,100.63953,ลาดพร้าว,ลาดพร้าว,กรุงเทพมหานคร,แม่น้ำในกรุงเทพและปริมณฑล,กรุงเทพและปริมณฑล,4.4571,4.6521,,
CHN002,เขาคิชฌกูฏ,12.793900,102.113,ชากไทย,เขาคิชฌกูฏ,จันทบุรี,ชายฝั่งทะเลตะวันออก,ภาคตะวันออก,16.862,16.619,10.019,
PIN006,เมืองกำแพงเพชร (P7A),16.477605,99.517644,นครชุม,เมืองกำแพงเพชร,กำแพงเพชร,แม่น้ำปิง,ภาคเหนือ,78.69,78.74,71.5,
CHR003,แม่จัน,20.15759,99.85955,แม่จัน,แม่จัน,เชียงราย,แม่น้ำโขง,ภาคเหนือ,411.658,411.532,405.604,
NKO001,ทุ่งสง,8.17496,99.67879,ปากแพรก,ทุ่งสง,นครศรีธรรมราช,ภาคใต้ฝั่งตะวันตก,ภาคใต้,53.993,54.54,49.18,
SKG001,สว่างอารมณ์,15.585840,99.865650,สว่างอารมณ์,สว่างอารมณ์,อุทัยธานี,แม่น้ำสะแกกรัง,ภาคเหนือ,36.93,35.896,29.3,
SLA007,บางกล่ำ,7.079451,100.427841,ท่าช้าง,บางกล่ำ,สงขลา,ทะเลสาบสงขลา,ภาคใต้,1.038,1.038,-1.91,
BKK002,คลองเปรมประชากร หลักหก,13.965630,100.602580,หลักหก,เมืองปทุมธานี,ปทุมธานี,แม่น้ำในกรุงเทพและปริมณฑล,กรุงเทพและปริมณฑล,1.575,1.292,-1.372,
BKK006,คลองมหาชัย วัดพันท้ายนรสิงห์,13.581820,100.365860,พันท้ายนรสิงห์,เมืองสมุทรสาคร,สมุทรสาคร,แม่น้ำในกรุงเทพและปริมณฑล,ภาคกลาง,1.924,1.084,-5.328,
BKK007,คลองอ้อมนนท์ บางใหญ่ (ถนนบางกรวย-ไทรน้อย),13.871010,100.436280,บางม่วง,บางใหญ่,นนทบุรี,แม่น้ำในกรุงเทพและปริมณฑล,กรุงเทพและปริมณฑล,1.592,1.738,-3.274,
BKK017,คลองจระเข้ใหญ่ บางเสาธง (วัดศรีวารีน้อย),13.66962,100.80054,ศีรษะจรเข้ใหญ่,บางเสาธง,สมุทรปราการ,แม่น้ำในกรุงเทพและปริมณฑล,กรุงเทพและปริมณฑล,,,,
WEI141,เหนือฝายชุมพวง,15.38688,102.71897,ชุมพวง,ชุมพวง,นครราชสีมา,แม่น้ำมูล,ภาคตะวันออกเฉียงเหนือ,,,,
WEI122,ท้ายฝายยางบ้านตะลุง,15.29309,103.54178,หนองเรือ,ชุมพลบุรี,สุรินทร์,แม่น้ำมูล,ภาคตะวันออกเฉียงเหนือ,,,,
WEI052,ท้านฝายมหาสารคาม,16.36915,102.94787,หนองบัว,โกสุมพิสัย,มหาสารคาม,แม่น้ำชี,ภาคตะวันออกเฉียงเหนือ,,,,
WEI101,เหนือฝายหัวนา,15.13304,104.70403,หนองแก้ว,กันทรารมย์,ศรีสะเกษ,แม่น้ำมูล,ภาคตะวันออกเฉียงเหนือ,,,,
WEI011,เหนือฝายยางกะฮาด,15.63953,102.04035,กะฮาด,เนินสง่า,ชัยภูมิ,แม่น้ำชี,ภาคตะวันออกเฉียงเหนือ,,,,
WEI091,เหนือฝายธาตุน้อย,15.31205,104.45617,สหธาตุ,เขื่องใน,อุบลราชธานี,แม่น้ำชี,ภาคตะวันออกเฉียงเหนือ,,,,
WEI142,ท้ายฝายชุมพวง,15.38688,102.71897,ชุมพวง,ชุมพวง,นครราชสีมา,แม่น้ำมูล,ภาคตะวันออกเฉียงเหนือ,,,,
WEI102,ท้ายฝายหัวนา,15.13304,104.70403,หนองแก้ว,กันทรารมย์,ศรีสะเกษ,แม่น้ำมูล,ภาคตะวันออกเฉียงเหนือ,,,,
WEI012,ท้ายฝายยางกะฮาด,15.63953,102.04035,กะฮาด,เนินสง่า,ชัยภูมิ,แม่น้ำชี,ภาคตะวันออกเฉียงเหนือ,,,,
WEI031,เหนือฝายชนบท,16.07473,102.49362,โนนพะยอม,ชนบท,ขอนแก่น,แม่น้ำชี,ภาคตะวันออกเฉียงเหนือ,,,,
WEI022,ท้ายฝายยางแก้งสนามนาง,15.79090,102.30473,โนนสำราญ,แก้งสนามนาง,นครราชสีมา,แม่น้ำชี,ภาคตะวันออกเฉียงเหนือ,,,,
WEI062,ท้ายฝายวังยาง,16.20000,103.47325,ลำชี,ฆ้องชัย,กาฬสินธุ์,แม่น้ำชี,ภาคตะวันออกเฉียงเหนือ,,,,
WEI151,เหนือฝายพิมาย,15.22879,102.50182,ในเมือง,พิมาย,นครราชสีมา,แม่น้ำมูล,ภาคตะวันออกเฉียงเหนือ,,,,
WEI071,เหนือฝายร้อยเอ็ด,16.17250,103.78944,พระธาตุ,เชียงขวัญ,ร้อยเอ็ด,แม่น้ำชี,ภาคตะวันออกเฉียงเหนือ,,,,
WEI072,ท้ายฝายร้อยเอ็ด,16.17250,103.78944,พระธาตุ,เชียงขวัญ,ร้อยเอ็ด,แม่น้ำชี,ภาคตะวันออกเฉียงเหนือ,,,,
WEI092,ท้ายฝายธาตุน้อย,15.31205,104.45617,สหธาตุ,เขื่องใน,อุบลราชธานี,แม่น้ำชี,ภาคตะวันออกเฉียงเหนือ,,,,
WEI032,ท้ายฝายชนบท,16.07473,102.49362,โนนพะยอม,ชนบท,ขอนแก่น,แม่น้ำชี,ภาคตะวันออกเฉียงเหนือ,,,,
WEI041,เหนือฝายหนองหวาย,16.72653,102.80362,น้ำพอง,น้ำพอง,ขอนแก่น,แม่น้ำชี,ภาคตะวันออกเฉียงเหนือ,,,,
WEI051,เหนือฝายมหาสารคาม,16.36915,102.94787,หนองบัว,โกสุมพิสัย,มหาสารคาม,แม่น้ำชี,ภาคตะวันออกเฉียงเหนือ,,,,
WEI112,ท้ายฝายราษีไศล,15.34330,104.09820,บัวหุ่ง,ราษีไศล,ศรีสะเกษ,แม่น้ำมูล,ภาคตะวันออกเฉียงเหนือ,,,,
WEI061,เหนือฝายวังยาง,16.20000,103.47325,ลำชี,ฆ้องชัย,กาฬสินธุ์,แม่น้ำชี,ภาคตะวันออกเฉียงเหนือ,,,,
WEI132,ท้ายฝายยางบ้านเขว้า,15.41190,103.10326,ปะเคียบ,คูเมือง,บุรีรัมย์,แม่น้ำมูล,ภาคตะวันออกเฉียงเหนือ,,,,
WEI121,เหนือฝายยางบ้านตะลุง,15.29309,103.54178,หนองเรือ,ชุมพลบุรี,สุรินทร์,แม่น้ำมูล,ภาคตะวันออกเฉียงเหนือ,,,,
WEI111,เหนือฝายราษีไศล,15.34330,104.09820,บัวหุ่ง,ราษีไศล,ศรีสะเกษ,แม่น้ำมูล,ภาคตะวันออกเฉียงเหนือ,,,,
WEI131,เหนือฝายยางบ้านเขว้า,15.41190,103.10326,ปะเคียบ,คูเมือง,บุรีรัมย์,แม่น้ำมูล,ภาคตะวันออกเฉียงเหนือ,,,,
WEI021,เหนือฝายยางแก้งสนามนาง,15.79090,102.30473,โนนสำราญ,แก้งสนามนาง,นครราชสีมา,แม่น้ำชี,ภาคตะวันออกเฉียงเหนือ,,,,
WEI081,เหนือฝายยโสธร,15.73199,104.13278,แสนสุข,พนมไพร,ร้อยเอ็ด,แม่น้ำชี,ภาคตะวันออกเฉียงเหนือ,,,,
DNP004,สะพานน้ำเงิน,19.22890,100.32600,ออย,ปง,พะเยา,แม่น้ำยม,ภาคเหนือ,313.952,313.08,309.6,
DNP024,สะพานแม่คำมี,18.37017,100.39559,ไผ่โทน,ร้องกวาง,แพร่,แม่น้ำยม,ภาคเหนือ,243.03,244.1,240.6,
DNP006,สะพานบ้านขุนควร,19.15033,100.38987,ควร,ปง,พะเยา,แม่น้ำยม,ภาคเหนือ,319.66,319.09,315.92,
DNP032,สะพานบ้านตึก,17.58679,99.87724,บ้านตึก,ศรีสัชนาลัย,สุโขทัย,แม่น้ำยม,ภาคเหนือ,84.89,87.08,80,
DNP022,สถานีโทรมาตรฯ สะพานน้ำแม่จั้วะ,19.020065,100.264243,สระ,เชียงม่วน,พะเยา,แม่น้ำยม,ภาคเหนือ,275.255,276.795,263.61,
DNP019,สะพานน้ำแม่สิน,17.797853,99.787411,นาพูน,วังชิ้น,แพร่,แม่น้ำยม,ภาคเหนือ,119.16,121.16,113.24,
DNP026,สะพานน้ำแม่ต้า,18.15877,99.94369,ต้าผามอก,ลอง,แพร่,แม่น้ำยม,ภาคเหนือ,159.13,160.18,151.8,
DNP027,สะพานแม่แคม,18.13054,100.21721,สวนเขื่อน,เมืองแพร่,แพร่,แม่น้ำยม,ภาคเหนือ,258.97,258.27,,
SKG006,ศาลเจ้าไก่ต่อ (TSK.2),15.78585,99.67840,ศาลเจ้าไก่ต่อ,ลาดยาว,นครสวรรค์,แม่น้ำสะแกกรัง,ภาคเหนือ,,,,
SKG005,สะพานแม่วงก์,15.90197,99.47050,ปางมะค่า,ขาณุวรลักษบุรี,กำแพงเพชร,แม่น้ำสะแกกรัง,ภาคเหนือ,,,,
SKG004,สะพานแม่เลย์,15.84168,99.41810,แม่เล่ย์,แม่วงก์,นครสวรรค์,แม่น้ำสะแกกรัง,ภาคเหนือ,,,,
SKG003,สะพานต้นน้ำ (เกาะแก้ว-ตลิ่งสูง),15.91436,99.41930,ปางมะค่า,ขาณุวรลักษบุรี,กำแพงเพชร,แม่น้ำสะแกกรัง,ภาคเหนือ,,,102.34,
SKG007,คลองกลาง,15.78329,99.65320,ศาลเจ้าไก่ต่อ,ลาดยาว,นครสวรรค์,แม่น้ำสะแกกรัง,ภาคเหนือ,,,,
TNG004,ปะเหลียน,7.37193,99.67730,ท่าพญา,ปะเหลียน,ตรัง,ภาคใต้ฝั่งตะวันตก,ภาคใต้,5.407,4.699,-0.766,
TNG005,วังวิเศษ,7.66889,99.45928,เขาวิเศษ,วังวิเศษ,ตรัง,ภาคใต้ฝั่งตะวันตก,ภาคใต้,11.857,11.604,8.592,
KRN004,ลิ่นถิ่น,14.53566,98.78765,ไทรโยค,ไทรโยค,กาญจนบุรี,แม่น้ำแม่กลอง,ภาคกลาง,70.524,72.886,,
PRN002,หัวหิน,12.50846,99.84206,ทับใต้,หัวหิน,ประจวบคีรีขันธ์,ชายฝั่งทะเลประจวบคีรีขันธ์,ภาคกลาง,32.162,31.776,28.287,
STU003,มะนัง,6.94082,99.87296,นิคมพัฒนา,มะนัง,สตูล,ภาคใต้ฝั่งตะวันตก,ภาคใต้,12.884,13.184,6.144,
PCH003,ท่ายาง,12.81346,99.79404,กลัดหลวง,ท่ายาง,เพชรบุรี,แม่น้ำเพชรบุรี,ภาคกลาง,26.09,26.6,21.835,
STU004,ควนกาหลง,6.92839,99.93607,อุใดเจริญ,ควนกาหลง,สตูล,ภาคใต้ฝั่งตะวันตก,ภาคใต้,28.887,26.037,19.632,
BSP002,คลองขนาน,11.24064,99.43523,ร่อนทอง,บางสะพาน,ประจวบคีรีขันธ์,ชายฝั่งทะเลประจวบคีรีขันธ์,ภาคกลาง,16.475,16.765,10.959,
TNG006,รัษฎา,7.96412,99.59776,ควนเมา,รัษฎา,ตรัง,ภาคใต้ฝั่งตะวันตก,ภาคใต้,25.605,24.445,17.1,
KRN003,วังด้ง,14.13691,99.38306,วังด้ง,เมืองกาญจนบุรี,กาญจนบุรี,แม่น้ำแม่กลอง,ภาคกลาง,41.089,40.383,,
TNG003,คลองนางน้อย,7.56816,99.65108,นาโยงใต้,เมืองตรัง,ตรัง,ภาคใต้ฝั่งตะวันตก,ภาคใต้,16.821,16.964,14.423,
NKO004,ทุ่งใหญ่,8.41452,99.24983,บางรูป,ทุ่งใหญ่,นครศรีธรรมราช,,ภาคใต้,16.24,16.56,9.62,
TPI006,พระแสง,8.53743,99.18084,ไทรขึง,พระแสง,สุราษฎร์ธานี,แม่น้ำตาปี,ภาคใต้,11.217,12.312,4.848,
NKO003,ถ้ำพรรณรา,8.39126,99.39515,ถ้ำพรรณรา,ถ้ำพรรณรา,นครศรีธรรมราช,,ภาคใต้,20.854,21.854,10.436,
STU002,ละงู,6.88579,99.80436,ละงู,ละงู,สตูล,ภาคใต้ฝั่งตะวันตก,ภาคใต้,2.033,3.023,-1.172,
VLGE16,ชุมชนลีเล็ด,9.191722,99.253826,ลีเล็ด,พุนพิน,สุราษฎร์ธานี,แม่น้ำตาปี,ภาคใต้,,,,
VLGE42,ชุมชนบ้านควน 2,6.576333,101.19905,พร่อน,เมืองยะลา,ยะลา,แม่น้ำปัตตานี,ภาคใต้,,,,
VLGE40,บ้านทับคริสต์,8.72682,98.81715,คลองชะอุ่น,พนม,สุราษฎร์ธานี,,ภาคใต้,,,,
VLGE13,ชุมแสงสงคราม,16.8586,100.06,ชุมแสงสงคราม,บางระกำ,พิษณุโลก,แม่น้ำยม,ภาคเหนือ,,,,
VLGE29,ชุมชนบ้านท่าด่าน,6.83216,101.20700,ดอนรัก,หนองจิก,ปัตตานี,แม่น้ำปัตตานี,ภาคใต้,,,,
VLGE20,ศาลาดิน,13.80783,100.27413,มหาสวัสดิ์,พุทธมณฑล,นครปฐม,,ภาคกลาง,,,,
VLGE41,ชุมชนบ้านควน 1,6.576905,101.16948,พร่อน,เมืองยะลา,ยะลา,แม่น้ำปัตตานี,ภาคใต้,,,,
VLGE26,ชุมชนประแส,12.72578,101.694888,ปากน้ำกระแส,แกลง,ระยอง,ชายฝั่งทะเลตะวันออก,ภาคตะวันออก,,,,
VLGE12,นครป่าหมาก,16.6233,100.37,นครป่าหมาก,บางกระทุ่ม,พิษณุโลก,แม่น้ำยม,ภาคเหนือ,,,,
VLGE19,วัดบ้านดงผาปูน,19.07310,101.19880,บ่อเกลือใต้,บ่อเกลือ,น่าน,แม่น้ำน่าน,ภาคเหนือ,,,,
TB0002,สะพานสองแคว,18.86410,100.64100,สะเนียน,เมืองน่าน,น่าน,,ภาคเหนือ,,,,
TB0001,บ้านกาใส,18.86570,100.67600,สะเนียน,เมืองน่าน,น่าน,,ภาคเหนือ,,,,
TBW021,สะพานมิตรภาพรับร่อ-หินแก้ว,10.60740,99.09530,รับร่อ,ท่าแซะ,ชุมพร,ภาคใต้ฝั่งตะวันออก,ภาคใต้,15.671,16.701,6.483,
TBW031,ห้วยลำโพง,15.80620,104.32800,ศรีฐาน,ป่าติ้ว,ยโสธร,,ภาคตะวันออกเฉียงเหนือ,127.841,129.678,,
TBW025,คลองปาว,16.25920,103.69040,เหล่าอ้อย,ร่องคำ,กาฬสินธุ์,,ภาคตะวันออกเฉียงเหนือ,134.124,133.249,,
TBW026,ห้วยยัง,16.60350,103.96230,ไค้นุ่น,ห้วยผึ้ง,กาฬสินธุ์,,ภาคตะวันออกเฉียงเหนือ,162.184,162.953,,
TB0006,เทศบาลตำบลทุ่งสะโตก,18.57384,98.86221,ทุ่งสะโตก,สันป่าตอง,เชียงใหม่,,ภาคเหนือ,,,,
TBW030,ลำน้ำพุง,16.99660,104.17350,เต่างอย,เต่างอย,สกลนคร,,ภาคตะวันออกเฉียงเหนือ,175.894,175.646,,
TBW033,ลำเซบาย,16.19540,104.52550,สวาท,เลิงนกทา,ยโสธร,,ภาคตะวันออกเฉียงเหนือ,146.637,144.663,,
TB0003,สะพานข้ามลำเซบก,15.50380,104.96600,ท่าเมือง,ดอนมดแดง,อุบลราชธานี,,ภาคตะวันออกเฉียงเหนือ,,,,
TBW027,ลำน้ำอูน,17.32280,103.97900,สว่าง,พรรณานิคม,สกลนคร,,ภาคตะวันออกเฉียงเหนือ,154.846,157.343,,
TBW032,ลำน้ำก่ำ,17.03060,104.41470,หนองบ่อ,นาแก,นครพนม,,ภาคตะวันออกเฉียงเหนือ,152.375,154.547,,
TB0005,อบต.เจริญธรรม,14.37820,101.00100,เจริญธรรม,วิหารแดง,สระบุรี,,ภาคกลาง,,,,
TBW028,ลำน้ำยาม,17.59970,103.98090,อากาศ,อากาศอำนวย,สกลนคร,,ภาคตะวันออกเฉียงเหนือ,147.639,149.486,,
TBW020,สะพานข้ามคลองคดศอก,10.75560,99.17950,หงษ์เจริญ,ท่าแซะ,ชุมพร,ภาคใต้ฝั่งตะวันออก,ภาคใต้,21.328,21.585,18.304,
TBW008,ฝ่ายส่งน้ำและบำรุงรักษาที่ 2,18.88350,99.08170,เมืองเล็น,สันทราย,เชียงใหม่,แม่น้ำปิง,ภาคเหนือ,322.227,322.39,318.75,
TBW018,อ่างเก็บน้ำคูขาด,14.55990,102.95150,ประทัดบุ,ประโคนชัย,บุรีรัมย์,แม่น้ำมูล,ภาคตะวันออกเฉียงเหนือ,,,,
TBW029,ลำน้ำยัง,16.32060,104.02240,แวง,โพนทอง,ร้อยเอ็ด,,ภาคตะวันออกเฉียงเหนือ,142.177,144.318,,
TBW009,อ่างเก็บน้ำแม่เกี๋ยง,18.43270,99.49820,บ้านเอื้อม,เมืองลำปาง,ลำปาง,แม่น้ำวัง,ภาคเหนือ,,,,
TBW014,สะพานข้ามคลองเกรียงไกร,15.84310,100.21140,บางเคียน,ชุมแสง,นครสวรรค์,แม่น้ำเจ้าพระยา,ภาคเหนือ,23.301,25.111,17.318,
TB0004,คลองแม่น้ำใน,14.30010,100.94200,หนองหมู,วิหารแดง,สระบุรี,,ภาคกลาง,,,,
RAY003,ทับมา,12.73794,101.22841,ทับมา,เมืองระยอง,ระยอง,ชายฝั่งทะเลตะวันออก,ภาคตะวันออก,11.482,12.266,,
CHN005,นายายอาม,12.72249,101.95608,วังใหม่,นายายอาม,จันทบุรี,ชายฝั่งทะเลตะวันออก,ภาคตะวันออก,7.2559,4.2759,,
CHN004,แก่งหางแมว,12.98686,101.89969,แก่งหางแมว,แก่งหางแมว,จันทบุรี,ชายฝั่งทะเลตะวันออก,ภาคตะวันออก,26.6001,24.9611,,
TRD003,วังกระแจะ,12.26253,102.52694,วังกระแจะ,เมืองตราด,ตราด,ชายฝั่งทะเลตะวันออก,ภาคตะวันออก,1.23,1.49,,
TRD002,ห้วยแร้ง,12.36934,102.54339,ห้วยแร้ง,เมืองตราด,ตราด,ชายฝั่งทะเลตะวันออก,ภาคตะวันออก,3.558,11.076,,
TON002,โป่งน้ำร้อน,13.03652,102.38159,หนองตาคง,โป่งน้ำร้อน,จันทบุรี,โตนเลสาป,ภาคตะวันออก,109.859,107.255,,
RAY004,บ้านค่าย,12.70687,101.30030,ตาขัน,บ้านค่าย,ระยอง,ชายฝั่งทะเลตะวันออก,ภาคตะวันออก,5.191,3.333,,
PRC004,ประจันตคาม (KGT7A),14.07069,101.51907,ประจันตคาม,ประจันตคาม,ปราจีนบุรี,แม่น้ำปราจีนบุรี,ภาคตะวันออก,6.8545,6.6625,,
TON001,ตาพระยา,14.05120,102.88532,ทัพเสด็จ,ตาพระยา,สระแก้ว,โตนเลสาป,ภาคตะวันออก,59.0445,58.9445,,
TRD004,บางพระ,12.23814,102.50971,บางพระ,เมืองตราด,ตราด,ชายฝั่งทะเลตะวันออก,ภาคตะวันออก,1.244,2.454,,
PRC005,ศรีมหาโพธิ (KGT6),13.97306,101.51726,บ้านทาม,ศรีมหาโพธิ,ปราจีนบุรี,แม่น้ำปราจีนบุรี,ภาคตะวันออก,7.5808,7.9828,,
RAY002,หนองบัว,12.84922,101.30134,หนองบัว,บ้านค่าย,ระยอง,ชายฝั่งทะเลตะวันออก,ภาคตะวันออก,17.008,15.967,,
HDA004,คลองช่องสะเดา,14.34478,100.67011,อุทัย,อุทัย,พระนครศรีอยุธยา,,กรุงเทพและปริมณฑล,3.33,3.027,0.727,
HDA005,วัดขนอนใต้,14.28832,100.61132,บ้านกรด,บางปะอิน,พระนครศรีอยุธยา,,กรุงเทพและปริมณฑล,2.613,2.537,-1.967,
